[{"OBJECT_NAME":"STARLINK-31153","OBJECT_ID":"2024-038X","EPOCH":"2026-03-09T21:54:52.130304","MEAN_MOTION":15.27559391,"ECCENTRICITY":0.00017653,"INCLINATION":43.0079,"RA_OF_ASC_NODE":22.1962,"ARG_OF_PERICENTER":275.4119,"MEAN_ANOMALY":84.6531,"EPHEMERIS_TYPE":0,"CLASSIFICATION_TYPE":"U","NORAD_CAT_ID":59044,"ELEMENT_SET_NO":999,"REV_AT_EPOCH":11472,"BSTAR":-2.7223859e-5,"MEAN_MOTION_DOT":-1.011e-5,"MEAN_MOTION_DDOT":0},{"OBJECT_NAME":"NUSAT-48 (HENRIETTA LEAVITT)","OBJECT_ID":"2024-149AG","EPOCH":"2026-03-09T19:19:17.269536","MEAN_MOTION":15.29812597,"ECCENTRICITY":0.00027538,"INCLINATION":97.3923,"RA_OF_ASC_NODE":150.8264,"ARG_OF_PERICENTER":263.3026,"MEAN_ANOMALY":96.7901,"EPHEMERIS_TYPE":0,"CLASSIFICATION_TYPE":"U","NORAD_CAT_ID":60498,"ELEMENT_SET_NO":999,"REV_AT_EPOCH":8694,"BSTAR":0.00045211745,"MEAN_MOTION_DOT":0.00012988,"MEAN_MOTION_DDOT":0}]
